[{"OBJECT_NAME":"ONEWEB-0277","OBJECT_ID":"2021-060AE","EPOCH":"2026-03-09T22:44:07.410336","MEAN_MOTION":13.16594719,"ECCENTRICITY":0.00016902,"INCLINATION":87.8994,"RA_OF_ASC_NODE":248.5294,"ARG_OF_PERICENTER":97.8922,"MEAN_ANOMALY":262.2401,"EPHEMERIS_TYPE":0,"CLASSIFICATION_TYPE":"U","NORAD_CAT_ID":48995,"ELEMENT_SET_NO":999,"REV_AT_EPOCH":22650,"BSTAR":0.00018895493,"MEAN_MOTION_DOT":8.5e-7,"MEAN_MOTION_DDOT":0},{"OBJECT_NAME":"COSMOS 2251 DEB","OBJECT_ID":"1993-036ACR","EPOCH":"2026-03-09T23:28:57.334368","MEAN_MOTION":13.44300926,"ECCENTRICITY":0.04352568,"INCLINATION":73.9619,"RA_OF_ASC_NODE":268.8908,"ARG_OF_PERICENTER":235.7733,"MEAN_ANOMALY":197.4227,"EPHEMERIS_TYPE":0,"CLASSIFICATION_TYPE":"U","NORAD_CAT_ID":34878,"ELEMENT_SET_NO":999,"REV_AT_EPOCH":82445,"BSTAR":0.00043519449,"MEAN_MOTION_DOT":4.24e-6,"MEAN_MOTION_DDOT":0}]
